start=new Date('2022-08-02T00:00:00.000Z').valueOf();
sats=[{"CLASSIFICATION_TYPE":"U","COUNTRY_CODE":"US","MEAN_ANOMALY":"283.3905","LAUNCH_DATE":"2022-05-13","REF_FRAME":"TEME","DECAY_DATE":null,"MEAN_MOTION":"15.08853297","PERIOD":"95.437","TIME_SYSTEM":"UTC","OBJECT_TYPE":"PAYLOAD","RA_OF_ASC_NODE":"280.8661","EPHEMERIS_TYPE":"0","MEAN_MOTION_DOT":"-0.00016938","INCLINATION":"53.2149","OBJECT_ID":"2022-051Q","CENTER_NAME":"EARTH","MEAN_ELEMENT_THEORY":"SGP4","ARG_OF_PERICENTER":"45.8123","TLE_LINE2":"2 52547  53.2149 280.8661 0001900  45.8123 283.3905 15.08853297  1305","REV_AT_EPOCH":"130","PERIAPSIS":"538.390","NORAD_CAT_ID":"52547","ECCENTRICITY":"0.00019000","EPOCH":"2022-08-01T22:00:00.999936","OBJECT_NAME":"STARLINK-3869","SITE":"AFWTR","GP_ID":"209392438","ELEMENT_SET_NO":"999","MEAN_MOTION_DDOT":"0.0000000000000","APOAPSIS":"541.019","SEMIMAJOR_AXIS":"6917.840","RCS_SIZE":"LARGE","BSTAR":"-0.00104820000000","FILE":"3527139","TLE_LINE1":"1 52547U 22051Q   22213.91667824 -.00016938  00000-0 -10482-2 0  9992"},{"REF_FRAME":"TEME","LAUNCH_DATE":"2022-05-13","MEAN_MOTION":"15.08850253","DECAY_DATE":null,"COUNTRY_CODE":"US","MEAN_ANOMALY":"210.7640","CLASSIFICATION_TYPE":"U","EPHEMERIS_TYPE":"0","RA_OF_ASC_NODE":"275.8378","OBJECT_TYPE":"PAYLOAD","PERIOD":"95.437","TIME_SYSTEM":"UTC","OBJECT_ID":"2022-051R","MEAN_ELEMENT_THEORY":"SGP4","CENTER_NAME":"EARTH","INCLINATION":"53.2156","MEAN_MOTION_DOT":"-0.00011259","TLE_LINE2":"2 52548  53.2156 275.8378 0001399  65.9729 210.7640 15.08850253  1309","ARG_OF_PERICENTER":"65.9729","NORAD_CAT_ID":"52548","ECCENTRICITY":"0.00013990","PERIAPSIS":"538.746","REV_AT_EPOCH":"130","MEAN_MOTION_DDOT":"0.0000000000000","ELEMENT_SET_NO":"999","GP_ID":"209392928","SITE":"AFWTR","EPOCH":"2022-08-01T22:00:00.999936","OBJECT_NAME":"STARLINK-3931","APOAPSIS":"540.682","SEMIMAJOR_AXIS":"6917.849","FILE":"3527139","TLE_LINE1":"1 52548U 22051R   22213.91667824 -.00011259  00000-0 -69021-3 0  9998","RCS_SIZE":"LARGE","BSTAR":"-0.00069021000000"},{"GP_ID":"209392563","SITE":"AFWTR","OBJECT_NAME":"STARLINK-3935","EPOCH":"2022-08-01T22:00:00.999936","ELEMENT_SET_NO":"999","MEAN_MOTION_DDOT":"0.0000000000000","REV_AT_EPOCH":"130","NORAD_CAT_ID":"52549","ECCENTRICITY":"0.00017240","PERIAPSIS":"538.577","FILE":"3527139","TLE_LINE1":"1 52549U 22051S   22213.91667824 -.00008180  00000-0 -49654-3 0  9998","RCS_SIZE":"LARGE","BSTAR":"-0.00049654000000","APOAPSIS":"540.963","SEMIMAJOR_AXIS":"6917.905","RA_OF_ASC_NODE":"275.8414","OBJECT_TYPE":"PAYLOAD","TIME_SYSTEM":"UTC","PERIOD":"95.438","EPHEMERIS_TYPE":"0","COUNTRY_CODE":"US","MEAN_ANOMALY":"128.5707","CLASSIFICATION_TYPE":"U","LAUNCH_DATE":"2022-05-13","REF_FRAME":"TEME","MEAN_MOTION":"15.08831923","DECAY_DATE":null,"TLE_LINE2":"2 52549  53.2152 275.8414 0001724  48.1983 128.5707 15.08831923  1307","ARG_OF_PERICENTER":"48.1983","INCLINATION":"53.2152","MEAN_MOTION_DOT":"-0.00008180","OBJECT_ID":"2022-051S","CENTER_NAME":"EARTH","MEAN_ELEMENT_THEORY":"SGP4"},{"MEAN_MOTION_DOT":"-0.00010142","INCLINATION":"53.2152","OBJECT_ID":"2022-051T","MEAN_ELEMENT_THEORY":"SGP4","CENTER_NAME":"EARTH","ARG_OF_PERICENTER":"49.8918","TLE_LINE2":"2 52550  53.2152 275.8387 0001678  49.8918 186.8668 15.08843773  1301","CLASSIFICATION_TYPE":"U","COUNTRY_CODE":"US","MEAN_ANOMALY":"186.8668","REF_FRAME":"TEME","LAUNCH_DATE":"2022-05-13","DECAY_DATE":null,"MEAN_MOTION":"15.08843773","TIME_SYSTEM":"UTC","PERIOD":"95.437","RA_OF_ASC_NODE":"275.8387","OBJECT_TYPE":"PAYLOAD","EPHEMERIS_TYPE":"0","APOAPSIS":"540.895","SEMIMAJOR_AXIS":"6917.869","RCS_SIZE":"LARGE","BSTAR":"-0.00061994000000","TLE_LINE1":"1 52550U 22051T   22213.91667824 -.00010142  00000-0 -61994-3 0  9992","FILE":"3527139","REV_AT_EPOCH":"130","PERIAPSIS":"538.573","NORAD_CAT_ID":"52550","ECCENTRICITY":"0.00016780","OBJECT_NAME":"STARLINK-3965","EPOCH":"2022-08-01T22:00:00.999936","GP_ID":"209392292","SITE":"AFWTR","ELEMENT_SET_NO":"999","MEAN_MOTION_DDOT":"0.0000000000000"},{"REV_AT_EPOCH":"130","ECCENTRICITY":"0.00016100","NORAD_CAT_ID":"52551","PERIAPSIS":"538.601","GP_ID":"209392053","SITE":"AFWTR","OBJECT_NAME":"STARLINK-3969","EPOCH":"2022-08-01T22:00:00.999936","MEAN_MOTION_DDOT":"0.0000000000000","ELEMENT_SET_NO":"999","SEMIMAJOR_AXIS":"6917.850","APOAPSIS":"540.828","TLE_LINE1":"1 52551U 22051U   22213.91667824 -.00008644  00000-0 -52549-3 0  9993","FILE":"3527139","BSTAR":"-0.00052549000000","RCS_SIZE":"LARGE","MEAN_ANOMALY":"148.2741","COUNTRY_CODE":"US","CLASSIFICATION_TYPE":"U","DECAY_DATE":null,"MEAN_MOTION":"15.08850099","LAUNCH_DATE":"2022-05-13","REF_FRAME":"TEME","OBJECT_TYPE":"PAYLOAD","RA_OF_ASC_NODE":"275.8401","TIME_SYSTEM":"UTC","PERIOD":"95.437","EPHEMERIS_TYPE":"0","INCLINATION":"53.2152","MEAN_MOTION_DOT":"-0.00008644","MEAN_ELEMENT_THEORY":"SGP4","CENTER_NAME":"EARTH","OBJECT_ID":"2022-051U","TLE_LINE2":"2 52551  53.2152 275.8401 0001610  48.5055 148.2741 15.08850099  1306","ARG_OF_PERICENTER":"48.5055"},{"SITE":"AFWTR","GP_ID":"209392803","OBJECT_NAME":"STARLINK-3966","EPOCH":"2022-08-01T22:00:00.999936","ELEMENT_SET_NO":"999","MEAN_MOTION_DDOT":"0.0000000000000","REV_AT_EPOCH":"130","ECCENTRICITY":"0.00013660","NORAD_CAT_ID":"52552","PERIAPSIS":"538.762","TLE_LINE1":"1 52552U 22051V   22213.91667824 -.00011176  00000-0 -68496-3 0  9996","FILE":"3527139","BSTAR":"-0.00068496000000","RCS_SIZE":"LARGE","SEMIMAJOR_AXIS":"6917.842","APOAPSIS":"540.652","OBJECT_TYPE":"PAYLOAD","RA_OF_ASC_NODE":"275.8378","TIME_SYSTEM":"UTC","PERIOD":"95.437","EPHEMERIS_TYPE":"0","COUNTRY_CODE":"US","MEAN_ANOMALY":"230.3260","CLASSIFICATION_TYPE":"U","MEAN_MOTION":"15.08852556","DECAY_DATE":null,"LAUNCH_DATE":"2022-05-13","REF_FRAME":"TEME","TLE_LINE2":"2 52552  53.2159 275.8378 0001366  66.4361 230.3260 15.08852556  1303","ARG_OF_PERICENTER":"66.4361","INCLINATION":"53.2159","MEAN_MOTION_DOT":"-0.00011176","MEAN_ELEMENT_THEORY":"SGP4","CENTER_NAME":"EARTH","OBJECT_ID":"2022-051V"},{"ARG_OF_PERICENTER":"50.4760","TLE_LINE2":"2 52553  53.2151 275.8396 0001555  50.4760 166.3077 15.08831151  1304","OBJECT_ID":"2022-051W","CENTER_NAME":"EARTH","MEAN_ELEMENT_THEORY":"SGP4","MEAN_MOTION_DOT":"-0.00009672","INCLINATION":"53.2151","EPHEMERIS_TYPE":"0","PERIOD":"95.438","TIME_SYSTEM":"UTC","RA_OF_ASC_NODE":"275.8396","OBJECT_TYPE":"PAYLOAD","REF_FRAME":"TEME","LAUNCH_DATE":"2022-05-13","MEAN_MOTION":"15.08831151","DECAY_DATE":null,"CLASSIFICATION_TYPE":"U","MEAN_ANOMALY":"166.3077","COUNTRY_CODE":"US","RCS_SIZE":"LARGE","BSTAR":"-0.00059053000000","FILE":"3527139","TLE_LINE1":"1 52553U 22051W   22213.91667824 -.00009672  00000-0 -59053-3 0  9994","APOAPSIS":"540.848","SEMIMAJOR_AXIS":"6917.907","MEAN_MOTION_DDOT":"0.0000000000000","ELEMENT_SET_NO":"999","OBJECT_NAME":"STARLINK-3858","EPOCH":"2022-08-01T22:00:00.999936","GP_ID":"209392177","SITE":"AFWTR","PERIAPSIS":"538.697","NORAD_CAT_ID":"52553","ECCENTRICITY":"0.00015550","REV_AT_EPOCH":"130"},{"EPHEMERIS_TYPE":"0","RA_OF_ASC_NODE":"280.8637","OBJECT_TYPE":"PAYLOAD","PERIOD":"95.437","TIME_SYSTEM":"UTC","DECAY_DATE":null,"MEAN_MOTION":"15.08854553","LAUNCH_DATE":"2022-05-13","REF_FRAME":"TEME","COUNTRY_CODE":"US","MEAN_ANOMALY":"326.4284","CLASSIFICATION_TYPE":"U","TLE_LINE2":"2 52554  53.2160 280.8637 0001879  42.8270 326.4284 15.08854553  1309","ARG_OF_PERICENTER":"42.8270","CENTER_NAME":"EARTH","MEAN_ELEMENT_THEORY":"SGP4","OBJECT_ID":"2022-051X","INCLINATION":"53.2160","MEAN_MOTION_DOT":"-0.00016161","MEAN_MOTION_DDOT":"0.0000000000000","ELEMENT_SET_NO":"999","GP_ID":"209392678","SITE":"AFWTR","EPOCH":"2022-08-01T22:00:00.999936","OBJECT_NAME":"STARLINK-3770","ECCENTRICITY":"0.00018790","NORAD_CAT_ID":"52554","PERIAPSIS":"538.401","REV_AT_EPOCH":"130","TLE_LINE1":"1 52554U 22051X   22213.91667824 -.00016161  00000-0 -99914-3 0  9996","FILE":"3527139","BSTAR":"-0.00099914000000","RCS_SIZE":"LARGE","SEMIMAJOR_AXIS":"6917.836","APOAPSIS":"541.001"},{"EPHEMERIS_TYPE":"0","OBJECT_TYPE":"PAYLOAD","RA_OF_ASC_NODE":"275.8382","PERIOD":"95.437","TIME_SYSTEM":"UTC","MEAN_MOTION":"15.08853276","DECAY_DATE":null,"REF_FRAME":"TEME","LAUNCH_DATE":"2022-05-13","COUNTRY_CODE":"US","MEAN_ANOMALY":"184.6406","CLASSIFICATION_TYPE":"U","TLE_LINE2":"2 52555  53.2150 275.8382 0001469  72.1052 184.6406 15.08853276  1300","ARG_OF_PERICENTER":"72.1052","CENTER_NAME":"EARTH","MEAN_ELEMENT_THEORY":"SGP4","OBJECT_ID":"2022-051Y","INCLINATION":"53.2150","MEAN_MOTION_DOT":"-0.00010596","MEAN_MOTION_DDOT":"0.0000000000000","ELEMENT_SET_NO":"999","GP_ID":"209392439","SITE":"AFWTR","EPOCH":"2022-08-01T22:00:00.999936","OBJECT_NAME":"STARLINK-3949","ECCENTRICITY":"0.00014690","NORAD_CAT_ID":"52555","PERIAPSIS":"538.689","REV_AT_EPOCH":"130","FILE":"3527139","TLE_LINE1":"1 52555U 22051Y   22213.91667824 -.00010596  00000-0 -64839-3 0  9991","BSTAR":"-0.00064839000000","RCS_SIZE":"LARGE","SEMIMAJOR_AXIS":"6917.840","APOAPSIS":"540.721"},{"PERIOD":"95.438","TIME_SYSTEM":"UTC","OBJECT_TYPE":"PAYLOAD","RA_OF_ASC_NODE":"280.8644","EPHEMERIS_TYPE":"0","CLASSIFICATION_TYPE":"U","COUNTRY_CODE":"US","MEAN_ANOMALY":"347.2076","DECAY_DATE":null,"MEAN_MOTION":"15.08838429","LAUNCH_DATE":"2022-05-13","REF_FRAME":"TEME","ARG_OF_PERICENTER":"42.0652","TLE_LINE2":"2 52556  53.2158 280.8644 0001985  42.0652 347.2076 15.08838429  1304","MEAN_MOTION_DOT":"-0.00015327","INCLINATION":"53.2158","MEAN_ELEMENT_THEORY":"SGP4","CENTER_NAME":"EARTH","OBJECT_ID":"2022-051Z","EPOCH":"2022-08-01T22:00:00.999936","OBJECT_NAME":"STARLINK-3763","GP_ID":"209392929","SITE":"AFWTR","ELEMENT_SET_NO":"999","MEAN_MOTION_DDOT":"0.0000000000000","REV_AT_EPOCH":"130","PERIAPSIS":"538.377","ECCENTRICITY":"0.00019850","NORAD_CAT_ID":"52556","BSTAR":"-0.00094697000000","RCS_SIZE":"LARGE","TLE_LINE1":"1 52556U 22051Z   22213.91667824 -.00015327  00000-0 -94697-3 0  9994","FILE":"3527139","SEMIMAJOR_AXIS":"6917.885","APOAPSIS":"541.123"}];
